H1 CPF  1  DGF 2022 02 17 11  5481 larets     NONE      
H2   304206 5557    27944 2022 02 17 00 00 00 2022 02 24 00 00 00    30 1 1  0 0 0
H5  0.0650
H9
10 0 59630  79200.000000  0       3510134.544       6106959.958        495156.594
10 0 59630  79230.000000  0       3541723.591       6066504.826        717496.355
10 0 59630  79260.000000  0       3569526.064       6019760.389        939102.281
10 0 59630  79290.000000  0       3593486.519       5966791.056       1159747.774
10 0 59630  79320.000000  0       3613553.749       5907667.855       1379207.247
10 0 59630  79350.000000  0       3629680.868       5842468.332       1597256.364
10 0 59630  79380.000000  0       3641825.385       5771276.453       1813672.274
10 0 59630  79410.000000  0       3649949.270       5694182.499       2028233.846
10 0 59630  79440.000000  0       3654019.023       5611282.948       2240721.900
10 0 59630  79470.000000  0       3654005.730       5522680.350       2450919.445
10 0 59630  79500.000000  0       3649885.116       5428483.200       2658611.902
10 0 59630  79530.000000  0       3641637.599       5328805.789       2863587.331
10 0 59630  79560.000000  0       3629248.322       5223768.060       3065636.649
10 0 59630  79590.000000  0       3612707.195       5113495.460       3264553.838
10 0 59630  79620.000000  0       3592008.922       4998118.781       3460136.160
10 0 59630  79650.000000  0       3567153.030       4877774.005       3652184.359
10 0 59630  79680.000000  0       3538143.890       4752602.140       3840502.869
10 0 59630  79710.000000  0       3504990.733       4622749.052       4024900.022
10 0 59630  79740.000000  0       3467707.650       4488365.287       4205188.244
10 0 59630  79770.000000  0       3426313.593       4349605.885       4381184.245
10 0 59630  79800.000000  0       3380832.364       4206630.194       4552709.212
10 0 59630  79830.000000  0       3331292.603       4059601.676       4719588.975
10 0 59630  79860.000000  0       3277727.764       3908687.713       4881654.183
10 0 59630  79890.000000  0       3220176.102       3754059.417       5038740.467
10 0 59630  79920.000000  0       3158680.641       3595891.423       5190688.606
10 0 59630  79950.000000  0       3093289.143       3434361.689       5337344.681
10 0 59630  79980.000000  0       3024054.068       3269651.286       5478560.219
10 0 59630  80010.000000  0       2951032.531       3101944.199       5614192.338
10 0 59630  80040.000000  0       2874286.258       2931427.113       5744103.884
10 0 59630  80070.000000  0       2793881.531       2758289.212       5868163.568
10 0 59630  80100.000000  0       2709889.127       2582721.954       5986246.090
10 0 59630  80130.000000  0       2622384.258       2404918.864       6098232.265
10 0 59630  80160.000000  0       2531446.491       2225075.311       6204009.134
10 0 59630  80190.000000  0       2437159.682       2043388.291       6303470.066
10 0 59630  80220.000000  0       2339611.887       1860056.214       6396514.864
10 0 59630  80250.000000  0       2238895.286       1675278.681       6483049.850
10 0 59630  80280.000000  0       2135106.084       1489256.267       6562987.956
10 0 59630  80310.000000  0       2028344.425       1302190.308       6636248.802
10 0 59630  80340.000000  0       1918714.289       1114282.681       6702758.770
10 0 59630  80370.000000  0       1806323.391        925735.587       6762451.069
10 0 59630  80400.000000  0       1691283.071        736751.344       6815265.794
10 0 59630  80430.000000  0       1573708.189        547532.165       6861149.985
10 0 59630  80460.000000  0       1453717.007        358279.953       6900057.676
10 0 59630  80490.000000  0       1331431.072        169196.081       6931949.939
10 0 59630  80520.000000  0       1206975.091        -19518.815       6956794.924
10 0 59630  80550.000000  0       1080476.807       -207665.061       6974567.884
10 0 59630  80580.000000  0        952066.863       -395044.143       6985251.196
10 0 59630  80610.000000  0        821878.672       -581458.925       6988834.377
10 0 59630  80640.000000  0        690048.277       -766713.842       6985314.086
10 0 59630  80670.000000  0        556714.213       -950615.110       6974694.136
10 0 59630  80700.000000  0        422017.358      -1132970.923       6956985.485
10 0 59630  80730.000000  0        286100.786      -1313591.657       6932206.222
10 0 59630  80760.000000  0        149109.618      -1492290.058       6900381.552
10 0 59630  80790.000000  0         11190.869      -1668881.441       6861543.771
10 0 59630  80820.000000  0       -127506.712      -1843183.873       6815732.235
10 0 59630  80850.000000  0       -266832.797      -2015018.369       6762993.318
10 0 59630  80880.000000  0       -406635.643      -2184209.063       6703380.370
10 0 59630  80910.000000  0       -546762.252      -2350583.399       6636953.662
10 0 59630  80940.000000  0       -687058.534      -2513972.293       6563780.327
10 0 59630  80970.000000  0       -827369.474      -2674210.311       6483934.297
10 0 59630  81000.000000  0       -967539.297      -2831135.830       6397496.234
10 0 59630  81030.000000  0      -1107411.637      -2984591.203       6304553.456
10 0 59630  81060.000000  0      -1246829.708      -3134422.918       6205199.857
10 0 59630  81090.000000  0      -1385636.480      -3280481.756       6099535.822
10 0 59630  81120.000000  0      -1523674.856      -3422622.937       5987668.131
10 0 59630  81150.000000  0      -1660787.843      -3560706.269       5869709.861
10 0 59630  81180.000000  0      -1796818.735      -3694596.289       5745780.278
10 0 59630  81210.000000  0      -1931611.291      -3824162.402       5616004.727
10 0 59630  81240.000000  0      -2065009.917      -3949279.010       5480514.512
10 0 59630  81270.000000  0      -2196859.842      -4069825.644       5339446.772
10 0 59630  81300.000000  0      -2327007.305      -4185687.082       5192944.344
10 0 59630  81330.000000  0      -2455299.734      -4296753.466       5041155.627
10 0 59630  81360.000000  0      -2581585.925      -4402920.409       4884234.434
10 0 59630  81390.000000  0      -2705716.221      -4504089.097       4722339.842
10 0 59630  81420.000000  0      -2827542.692      -4600166.388       4555636.037
10 0 59630  81450.000000  0      -2946919.310      -4691064.905       4384292.150
10 0 59630  81480.000000  0      -3063702.130      -4776703.122       4208482.088
10 0 59630  81510.000000  0      -3177749.458      -4857005.435       4028384.358
10 0 59630  81540.000000  0      -3288922.026      -4931902.240       3844181.890
10 0 59630  81570.000000  0      -3397083.162      -5001329.989       3656061.852
10 0 59630  81600.000000  0      -3502098.951      -5065231.253       3464215.464
10 0 59630  81630.000000  0      -3603838.411      -5123554.776       3268837.808
10 0 59630  81660.000000  0      -3702173.649      -5176255.515       3070127.629
10 0 59630  81690.000000  0      -3796980.027      -5223294.681       2868287.131
10 0 59630  81720.000000  0      -3888136.318      -5264639.768       2663521.775
10 0 59630  81750.000000  0      -3975524.862      -5300264.579       2456040.066
10 0 59630  81780.000000  0      -4059031.716      -5330149.236       2246053.339
10 0 59630  81810.000000  0      -4138546.805      -5354280.196       2033775.544
10 0 59630  81840.000000  0      -4213964.062      -5372650.245       1819423.020
10 0 59630  81870.000000  0      -4285181.572      -5385258.494       1603214.277
10 0 59630  81900.000000  0      -4352101.700      -5392110.368       1385369.766
10 0 59630  81930.000000  0      -4414631.228      -5393217.579       1166111.651
10 0 59630  81960.000000  0      -4472681.478      -5388598.103        945663.580
10 0 59630  81990.000000  0      -4526168.431      -5378276.142        724250.450
10 0 59630  82020.000000  0      -4575012.847      -5362282.082        502098.173
10 0 59630  82050.000000  0      -4619140.375      -5340652.442        279433.441
10 0 59630  82080.000000  0      -4658481.657      -5313429.820         56483.487
10 0 59630  82110.000000  0      -4692972.426      -5280662.824       -166524.156
10 0 59630  82140.000000  0      -4722553.600      -5242406.003       -389361.891
10 0 59630  82170.000000  0      -4747171.372      -5198719.769       -611802.297
10 0 59630  82200.000000  0      -4766777.284      -5149670.307       -833618.371
10 0 59630  82230.000000  0      -4781328.309      -5095329.486      -1054583.765
10 0 59630  82260.000000  0      -4790786.909      -5035774.754      -1274473.022
10 0 59630  82290.000000  0      -4795121.104      -4971089.041      -1493061.814
10 0 59630  82320.000000  0      -4794304.524      -4901360.636      -1710127.178
10 0 59630  82350.000000  0      -4788316.455      -4826683.074      -1925447.745
10 0 59630  82380.000000  0      -4777141.881      -4747155.012      -2138803.976
10 0 59630  82410.000000  0      -4760771.517      -4662880.095      -2349978.384
10 0 59630  82440.000000  0      -4739201.839      -4573966.824      -2558755.761
10 0 59630  82470.000000  0      -4712435.103      -4480528.416      -2764923.401
10 0 59630  82500.000000  0      -4680479.356      -4382682.658      -2968271.319
10 0 59630  82530.000000  0      -4643348.449      -4280551.758      -3168592.468
10 0 59630  82560.000000  0      -4601062.034      -4174262.188      -3365682.947
10 0 59630  82590.000000  0      -4553645.555      -4063944.531      -3559342.215
10 0 59630  82620.000000  0      -4501130.240      -3949733.313      -3749373.287
10 0 59630  82650.000000  0      -4443553.078      -3831766.841      -3935582.944
10 0 59630  82680.000000  0      -4380956.796      -3710187.034      -4117781.923
10 0 59630  82710.000000  0      -4313389.824      -3585139.242      -4295785.109
10 0 59630  82740.000000  0      -4240906.254      -3456772.076      -4469411.723
10 0 59630  82770.000000  0      -4163565.797      -3325237.227      -4638485.501
99
